[Satellite]
VERSION=1.1
NAME=MOLNIYA 3-24
NICKNAME=MOLNIYA 3-24
TLE1=1 15738U 85040A   19316.25730360  .00000112  00000-0 -12635-1 0  9990
TLE2=2 15738  63.9077 239.5429 6458263 254.2251 343.6903  2.55629751279667
STATUS=0
